{"type": "FeatureCollection", "name": "marshall_2021_perimeter", "_source": "Boulder County Parks & Open Space \u2014 bcpos_Marshall_Fire_Perimeter (ArcGIS Online, public). NIFC InterAgencyFirePerimeterHistory does not contain this fire.", "features": [{"type": "Feature", "properties": {"INCIDENT": "Marshall", "FIRE_YEAR": 2021, "GIS_ACRES": 6025.7}, "geometry": {"type": "MultiPolygon", "coordinates": [[[[-105.187134457, 39.985363745], [-105.186304623, 39.9844961840001], [-105.185293042, 39.98536635], [-105.183069434, 39.98489528], [-105.180925801, 39.9841656030001], [-105.180030485, 39.983116701], [-105.179044374, 39.982792625], [-105.178216064, 39.983386173], [-105.177438118, 39.9845455130001], [-105.17670021, 39.9842938510001], [-105.176334604, 39.9832073630001], [-105.175454587, 39.982943225], [-105.175463225, 39.981777251], [-105.17647928, 39.980890652], [-105.177368119, 39.9808329050001], [-105.177294011, 39.9799237940001], [-105.175190144, 39.9800872660001], [-105.174275811, 39.9804511570001], [-105.173037133, 39.980495343], [-105.17263157, 39.9794729540001], [-105.172342291, 39.978675707], [-105.1710594, 39.978670687], [-105.17083645, 39.978887285], [-105.169593441, 39.9790032270001], [-105.168700728, 39.9793660440001], [-105.167563388, 39.979378647], [-105.166274465, 39.979390993], [-105.165601945, 39.978286337], [-105.16394491, 39.978832281], [-105.163173739, 39.97812596], [-105.162244113, 39.97785982], [-105.161488467, 39.978855127], [-105.160413526, 39.979395528], [-105.159494867, 39.9791857180001], [-105.158880088, 39.9785327720001], [-105.157987797, 39.978637973], [-105.157780148, 39.9775546870001], [-105.157060933, 39.9772263930001], [-105.156867703, 39.9763929110001], [-105.158519853, 39.9756316080001], [-105.159943603, 39.9752611940001], [-105.160899722, 39.9744530180001], [-105.162367086, 39.974153248], [-105.163376538, 39.9735868540001], [-105.164234263, 39.973214012], [-105.165101113, 39.972238561], [-105.166030638, 39.9715731500001], [-105.167145155, 39.9713531880001], [-105.167222145, 39.9720405850001], [-105.167799122, 39.972425216], [-105.168022086, 39.972997694], [-105.168771915, 39.9731362960001], [-105.170324978, 39.9733440620001], [-105.172390977, 39.9725436730001], [-105.173139759, 39.9728465700001], [-105.172766868, 39.973389871], [-105.173255272, 39.9738249020001], [-105.174076458, 39.973726088], [-105.174543496, 39.9736368470001], [-105.174841951, 39.9732128170001], [-105.175102642, 39.972602128], [-105.175128408, 39.972092909], [-105.177444972, 39.971972794], [-105.179478219, 39.9717995030001], [-105.181306571, 39.971560272], [-105.183064336, 39.970595835], [-105.182769912, 39.969435101], [-105.183107805, 39.9682963700001], [-105.184367799, 39.967231648], [-105.184682934, 39.9658915810001], [-105.185699409, 39.9662324940001], [-105.186741644, 39.9666928770001], [-105.187572113, 39.966939183], [-105.189025255, 39.966794409], [-105.190208757, 39.966913857], [-105.190397643, 39.9669121160001], [-105.190177232, 39.9664314120001], [-105.188893477, 39.9663162150001], [-105.18898054, 39.9644818840001], [-105.186393213, 39.9646756570001], [-105.186360967, 39.9635088100001], [-105.185116699, 39.9635639680001], [-105.183957726, 39.9640032980001], [-105.182463259, 39.964310834], [-105.181207977, 39.9650692700001], [-105.180302221, 39.965670721], [-105.178997866, 39.966263199], [-105.177280352, 39.964439593], [-105.174595521, 39.9648693510001], [-105.171677915, 39.9639339190001], [-105.17004427, 39.962435205], [-105.169240774, 39.960370056], [-105.170000198, 39.9593847360001], [-105.166540477, 39.9583268410001], [-105.164255411, 39.957477752], [-105.160127991, 39.9555000500001], [-105.158229104, 39.9561810110001], [-105.155918076, 39.957688408], [-105.15534748, 39.9574787490001], [-105.155353714, 39.957531852], [-105.154491953, 39.9583117760001], [-105.152812531, 39.9585980850001], [-105.152970977, 39.9597461480001], [-105.153509796, 39.959776688], [-105.154563871, 39.9599367870001], [-105.155238435, 39.9601664840001], [-105.156081484, 39.960607005], [-105.156852653, 39.960816098], [-105.157396123, 39.9610755600001], [-105.157711037, 39.9615962770001], [-105.156852105, 39.9617720480001], [-105.155845812, 39.9615991200001], [-105.154648995, 39.9616431950001], [-105.15428529, 39.9618382270001], [-105.153811003, 39.962218122], [-105.153276942, 39.962429209], [-105.152819696, 39.9625803260001], [-105.152236096, 39.962420406], [-105.151566113, 39.9619625130001], [-105.151531323, 39.962040099], [-105.150514412, 39.96038492], [-105.148937539, 39.96047554], [-105.14885239, 39.959723458], [-105.147008266, 39.9588463740001], [-105.145414516, 39.9593435840001], [-105.144755914, 39.958827334], [-105.143539777, 39.959242745], [-105.14229688, 39.9601574830001], [-105.141944818, 39.9593208850001], [-105.140818811, 39.959404729], [-105.140141763, 39.95908617], [-105.139054121, 39.9590794640001], [-105.137998952, 39.9590101800001], [-105.136641141, 39.958945699], [-105.135414397, 39.959079493], [-105.134516477, 39.9591787540001], [-105.132993789, 39.9589389630001], [-105.131587138, 39.9587850770001], [-105.131423411, 39.958350684], [-105.132546936, 39.9582355580001], [-105.131703298, 39.9575278570001], [-105.134019521, 39.9577657040001], [-105.136006542, 39.95755509], [-105.137197777, 39.957773713], [-105.138190053, 39.957406281], [-105.139466104, 39.9564955050001], [-105.140610581, 39.955566769], [-105.142215522, 39.955456827], [-105.143282577, 39.9546918770001], [-105.144254956, 39.954073325], [-105.145463057, 39.9536028410001], [-105.146471514, 39.953005558], [-105.146918959, 39.9527691490001], [-105.147617222, 39.952811696], [-105.148504505, 39.9528330600001], [-105.148563534, 39.953870886], [-105.149813267, 39.9536865990001], [-105.15071318, 39.954065873], [-105.151411207, 39.954089223], [-105.152266505, 39.9537910180001], [-105.152272049, 39.953091477], [-105.152714335, 39.9527077130001], [-105.153323766, 39.952288479], [-105.1536393, 39.951739692], [-105.153308511, 39.9512645290001], [-105.152929003, 39.9505715350001], [-105.151742568, 39.9503122130001], [-105.150747073, 39.950313986], [-105.150096324, 39.950964221], [-105.147095518, 39.950169314], [-105.146936304, 39.949324926], [-105.146776384, 39.947530257], [-105.144940592, 39.9471413530001], [-105.145446662, 39.94677404], [-105.1467929, 39.94609179], [-105.148144516, 39.9466784620001], [-105.149935991, 39.947066632], [-105.151319706, 39.9472064410001], [-105.153936454, 39.9471376750001], [-105.156561079, 39.947020228], [-105.158962447, 39.947001449], [-105.161284269, 39.946780604], [-105.163811809, 39.9468090170001], [-105.163331492, 39.9451452640001], [-105.16270081, 39.943338063], [-105.161835805, 39.941661367], [-105.161312021, 39.940683025], [-105.161848772, 39.940433995], [-105.162119924, 39.9398803980001], [-105.161823813, 39.9391327380001], [-105.161906839, 39.9388255260001], [-105.162449527, 39.93860103], [-105.162808722, 39.9383640350001], [-105.162916661, 39.9380924640001], [-105.163073938, 39.9379432740001], [-105.163346105, 39.9377130980001], [-105.163604696, 39.937357886], [-105.164021009, 39.937326179], [-105.164576032, 39.9370293480001], [-105.164887668, 39.9366869940001], [-105.163510982, 39.935879777], [-105.162089533, 39.936032976], [-105.160785757, 39.9361126110001], [-105.159816633, 39.9363648100001], [-105.159191533, 39.9364123830001], [-105.157970346, 39.936684818], [-105.157531494, 39.9366861120001], [-105.157326902, 39.9357139900001], [-105.157133561, 39.935362431], [-105.156665451, 39.934839964], [-105.15638058, 39.9344119610001], [-105.15575994, 39.934267921], [-105.155974117, 39.9336388520001], [-105.156959629, 39.9331291940001], [-105.156773811, 39.933005176], [-105.155792432, 39.932501691], [-105.15335363, 39.9323370070001], [-105.152448741, 39.932828397], [-105.151008081, 39.932738957], [-105.149750572, 39.9321581310001], [-105.148716547, 39.932498485], [-105.147562556, 39.932811236], [-105.146423555, 39.9335692980001], [-105.146372906, 39.9328773510001], [-105.147266669, 39.931132824], [-105.148466053, 39.930951065], [-105.149532073, 39.931235814], [-105.150839778, 39.931333543], [-105.151943136, 39.931402808], [-105.153033298, 39.9312217250001], [-105.153350428, 39.9304127230001], [-105.151439203, 39.930248154], [-105.151269678, 39.929796468], [-105.152712832, 39.9301708560001], [-105.154436948, 39.9301285780001], [-105.156487613, 39.93014398], [-105.157871793, 39.9298890530001], [-105.15984124, 39.9297753120001], [-105.160417478, 39.929571121], [-105.161961312, 39.92973715], [-105.163326869, 39.929400699], [-105.164423627, 39.9293276000001], [-105.165649219, 39.9293767720001], [-105.166519705, 39.9298341780001], [-105.166772401, 39.9292416480001], [-105.167529419, 39.9293171400001], [-105.16755836, 39.93015104], [-105.169223072, 39.9301243780001], [-105.169404753, 39.9310511300001], [-105.170202263, 39.93083834], [-105.171490106, 39.930359202], [-105.172849447, 39.9306882990001], [-105.174095671, 39.9318747610001], [-105.175301361, 39.9322763850001], [-105.176969643, 39.9327994060001], [-105.177436884, 39.9335440940001], [-105.178666298, 39.934429244], [-105.179615228, 39.9354605890001], [-105.180860346, 39.936074977], [-105.181937928, 39.936767623], [-105.182925489, 39.9374563710001], [-105.183524477, 39.9382310550001], [-105.183569059, 39.9392135350001], [-105.183000584, 39.940501849], [-105.180814798, 39.9414783940001], [-105.180414186, 39.9423828460001], [-105.180893461, 39.94311847], [-105.182345273, 39.9426656260001], [-105.183622546, 39.9420167750001], [-105.185435555, 39.9415554280001], [-105.186670123, 39.9411872650001], [-105.188084593, 39.940568715], [-105.189798181, 39.940141413], [-105.191086873, 39.939978577], [-105.191975563, 39.93969285], [-105.192439932, 39.9399777290001], [-105.193018931, 39.9400273790001], [-105.192806896, 39.9406262220001], [-105.192323958, 39.9414360010001], [-105.191352673, 39.9419137900001], [-105.190670837, 39.9424292850001], [-105.189776225, 39.9428927210001], [-105.188935464, 39.9434046060001], [-105.190156004, 39.943171647], [-105.191439773, 39.9430989000001], [-105.193780179, 39.9430341630001], [-105.198041904, 39.942917529], [-105.198601699, 39.9437224850001], [-105.198880164, 39.94547233], [-105.199067678, 39.94706117], [-105.199061843, 39.9478362240001], [-105.201851527, 39.9483610620001], [-105.203262371, 39.9490126170001], [-105.204831994, 39.949178036], [-105.205753786, 39.9494654440001], [-105.205797095, 39.949918961], [-105.207823738, 39.949404961], [-105.208598157, 39.9508813000001], [-105.209280529, 39.9524447100001], [-105.210225467, 39.953128845], [-105.21170785, 39.9529008380001], [-105.212951386, 39.9525123010001], [-105.213905158, 39.9525305550001], [-105.21520704, 39.952565683], [-105.215168962, 39.9519365430001], [-105.215928806, 39.9511214440001], [-105.216666033, 39.950493082], [-105.217180307, 39.949863942], [-105.217965884, 39.948911175], [-105.218712042, 39.948194153], [-105.219469343, 39.947058789], [-105.22113386, 39.946210707], [-105.222586756, 39.9455431490001], [-105.221843818, 39.9452396140001], [-105.220937956, 39.9443902900001], [-105.220148386, 39.9438634570001], [-105.219434375, 39.943595396], [-105.218836742, 39.943764118], [-105.218586359, 39.944015461], [-105.218384314, 39.9440270950001], [-105.218242471, 39.9438515220001], [-105.218307565, 39.943622347], [-105.217619835, 39.94339847], [-105.217008046, 39.9435106390001], [-105.216845711, 39.94340327], [-105.216778715, 39.942931888], [-105.216267158, 39.9427464600001], [-105.216032797, 39.9423962460001], [-105.215406841, 39.9419662440001], [-105.215007291, 39.941622045], [-105.214555373, 39.941265633], [-105.213796392, 39.940983181], [-105.21308976, 39.941061603], [-105.212204595, 39.9410928], [-105.211344565, 39.940846982], [-105.210959568, 39.940693169], [-105.210328346, 39.9404553530001], [-105.209902561, 39.940265224], [-105.209419128, 39.9401743550001], [-105.208795588, 39.9401114570001], [-105.207545731, 39.9401000040001], [-105.206583701, 39.9403724700001], [-105.206269655, 39.940605884], [-105.205878593, 39.940306057], [-105.204914635, 39.940337941], [-105.204432286, 39.9401161960001], [-105.203812931, 39.940168339], [-105.203146492, 39.9403059280001], [-105.202368372, 39.9400550190001], [-105.201844736, 39.940123311], [-105.201410182, 39.939800931], [-105.201550314, 39.939558161], [-105.202260082, 39.939618297], [-105.202844788, 39.939525403], [-105.203683378, 39.939509214], [-105.204721352, 39.93949322], [-105.205667969, 39.9395383920001], [-105.207085816, 39.939695626], [-105.207788574, 39.939813085], [-105.20836784, 39.9397802880001], [-105.209076867, 39.9398527320001], [-105.209726283, 39.939982544], [-105.210228187, 39.940193118], [-105.210598908, 39.940278005], [-105.21072463, 39.939872522], [-105.211295502, 39.9398750710001], [-105.211850158, 39.9398262610001], [-105.212198434, 39.939719481], [-105.212655221, 39.9395595870001], [-105.212325933, 39.9391256060001], [-105.211862041, 39.938597208], [-105.211206781, 39.938600294], [-105.210432782, 39.9384956970001], [-105.210129006, 39.93824342], [-105.209519507, 39.938191348], [-105.208938971, 39.9382325870001], [-105.208357265, 39.9377878440001], [-105.207927051, 39.9378293660001], [-105.207511186, 39.937534569], [-105.208054979, 39.9373799850001], [-105.208778991, 39.937436039], [-105.20967302, 39.9375954110001], [-105.210324407, 39.9374202230001], [-105.210957023, 39.9374261130001], [-105.211556897, 39.937319598], [-105.211662764, 39.936940502], [-105.211604885, 39.9363710270001], [-105.211898558, 39.9360822800001], [-105.212075436, 39.9359177100001], [-105.212206075, 39.9357868390001], [-105.212456191, 39.9356860570001], [-105.212625336, 39.9350886090001], [-105.213082885, 39.9350786380001], [-105.213656816, 39.934896614], [-105.214120261, 39.934966859], [-105.214574996, 39.9350462680001], [-105.215128046, 39.9349489770001], [-105.215486612, 39.935012122], [-105.216096533, 39.934780269], [-105.216600127, 39.934825001], [-105.217153253, 39.9349218410001], [-105.217681594, 39.935104546], [-105.218143723, 39.9352099600001], [-105.218536328, 39.9353265370001], [-105.219100479, 39.9353831500001], [-105.219646789, 39.9356570620001], [-105.220249284, 39.935934064], [-105.220701559, 39.9362055610001], [-105.220915425, 39.9363591220001], [-105.221265611, 39.936619018], [-105.221551858, 39.936904675], [-105.221834672, 39.9371132690001], [-105.222048986, 39.937191743], [-105.222502781, 39.937367075], [-105.222885499, 39.937501352], [-105.223393267, 39.9377485200001], [-105.223712641, 39.938014089], [-105.22474938, 39.9384318550001], [-105.226248285, 39.9392271360001], [-105.228004463, 39.9401981], [-105.228724206, 39.940829288], [-105.228865724, 39.94151735], [-105.229221714, 39.9420476000001], [-105.229643509, 39.9424980470001], [-105.230260056, 39.9427139530001], [-105.231159331, 39.9430873040001], [-105.232078169, 39.943826664], [-105.231959178, 39.944068155], [-105.233106629, 39.944668269], [-105.233324541, 39.9450488750001], [-105.233070182, 39.9458570160001], [-105.232555143, 39.9463404030001], [-105.23223146, 39.9467064460001], [-105.231879092, 39.947016714], [-105.231486253, 39.9473372680001], [-105.231078785, 39.947738777], [-105.23076285, 39.948077077], [-105.230353325, 39.9484640470001], [-105.230088416, 39.948807361], [-105.229986642, 39.949411026], [-105.230237439, 39.9497962190001], [-105.230256184, 39.9500411540001], [-105.230339653, 39.950426491], [-105.230280676, 39.950829242], [-105.229929153, 39.9509252550001], [-105.229969681, 39.950964373], [-105.231250636, 39.951801276], [-105.231623764, 39.952856583], [-105.230367579, 39.95439064], [-105.230416017, 39.955365757], [-105.231189408, 39.956338927], [-105.229687058, 39.956481914], [-105.229261519, 39.9572351730001], [-105.227894076, 39.957294023], [-105.227542411, 39.958274257], [-105.227188578, 39.9593097210001], [-105.226714076, 39.9600508980001], [-105.225807598, 39.961081472], [-105.225004137, 39.9623638140001], [-105.223622782, 39.96328027], [-105.222120143, 39.9636563760001], [-105.220783332, 39.964916267], [-105.218980131, 39.9661876690001], [-105.218000127, 39.966935612], [-105.219038019, 39.968208104], [-105.218020375, 39.9686408750001], [-105.216876563, 39.968159127], [-105.215173034, 39.968699361], [-105.214648552, 39.9692000690001], [-105.214651955, 39.969630554], [-105.212582478, 39.970972444], [-105.211703243, 39.971349981], [-105.210590577, 39.9718584880001], [-105.209390086, 39.972462594], [-105.207104259, 39.9736282130001], [-105.206069556, 39.97447233], [-105.205904592, 39.9758986910001], [-105.204781644, 39.9768103770001], [-105.204608364, 39.978146403], [-105.203842529, 39.97898951], [-105.203175955, 39.980262197], [-105.202721254, 39.9814327980001], [-105.201619273, 39.9818395670001], [-105.200991944, 39.982611445], [-105.20048083, 39.9833151940001], [-105.200714969, 39.983724345], [-105.200395711, 39.9840290920001], [-105.199765742, 39.984073332], [-105.19907134, 39.983700411], [-105.198045488, 39.9833809530001], [-105.19713437, 39.9835706590001], [-105.196527051, 39.9842781080001], [-105.195716632, 39.984758887], [-105.194778347, 39.984979669], [-105.19409467, 39.9853663480001], [-105.193228709, 39.985861432], [-105.192151875, 39.9858132200001], [-105.191034811, 39.986083583], [-105.189745133, 39.9863562840001], [-105.188308596, 39.986162489], [-105.187467157, 39.986379916], [-105.187134457, 39.985363745]]], [[[-105.15444768, 39.977271069], [-105.15506231, 39.977217177], [-105.154986294, 39.977731808], [-105.154330715, 39.977710993], [-105.15444768, 39.977271069]]], [[[-105.152226076, 39.9738413750001], [-105.15278589, 39.9739478010001], [-105.152282572, 39.9742287010001], [-105.152226076, 39.9738413750001]]], [[[-105.161005088, 39.971084357], [-105.161114515, 39.9725418250001], [-105.160395712, 39.9725791560001], [-105.159410956, 39.9725607040001], [-105.15840534, 39.972682057], [-105.157228771, 39.9728010960001], [-105.156321189, 39.972625238], [-105.156174478, 39.9711608470001], [-105.156755457, 39.971139189], [-105.157517672, 39.9718838000001], [-105.158695135, 39.971872364], [-105.159114286, 39.9716045750001], [-105.159710301, 39.971370817], [-105.160189472, 39.9712477910001], [-105.161005088, 39.971084357]]], [[[-105.154676023, 39.971954011], [-105.154900979, 39.971608573], [-105.155358027, 39.9715263900001], [-105.155700921, 39.972199962], [-105.155135922, 39.9722770540001], [-105.154676023, 39.971954011]]], [[[-105.154516845, 39.974088678], [-105.15475455, 39.9744080470001], [-105.154053777, 39.974447286], [-105.15374034, 39.9749508100001], [-105.15312985, 39.974864462], [-105.153179556, 39.9744012330001], [-105.153845442, 39.9740214440001], [-105.154516845, 39.974088678]]], [[[-105.161267591, 39.963739874], [-105.160639873, 39.9621782350001], [-105.160528258, 39.961310069], [-105.160802826, 39.9596913], [-105.161759968, 39.9600205460001], [-105.162056086, 39.9613008820001], [-105.161626869, 39.961888505], [-105.162304455, 39.9623304240001], [-105.1622109, 39.963385902], [-105.161267591, 39.963739874]]], [[[-105.167982233, 39.9635550190001], [-105.168187391, 39.964429021], [-105.166069319, 39.966452775], [-105.164586201, 39.966175365], [-105.165430544, 39.964379197], [-105.167982233, 39.9635550190001]]], [[[-105.133750969, 39.956517853], [-105.133861561, 39.9564630340001], [-105.133919114, 39.956603631], [-105.133744882, 39.956734571], [-105.133623476, 39.9565266440001], [-105.133750969, 39.956517853]]]]}}]}